MAKERSAT 0              
1 43016U 17073D   26068.63673096  .00023659  00000+0  71590-3 0  9993
2 43016  97.4777 310.6155 0115258 266.0743  92.7313 15.27797199451246
STARLINK-4399           
1 53469U 22099E   26068.87159434  .00000609  00000+0  46410-4 0  9995
2 53469  97.6034 191.4197 0001305 218.2726 141.8408 15.05645790196078
